[{"OBJECT_NAME":"LEMUR-2-ANDIS","OBJECT_ID":"2017-042P","EPOCH":"2026-03-09T13:25:33.116448","MEAN_MOTION":15.30557934,"ECCENTRICITY":0.0009101,"INCLINATION":97.3659,"RA_OF_ASC_NODE":249.795,"ARG_OF_PERICENTER":4.3248,"MEAN_ANOMALY":355.807,"EPHEMERIS_TYPE":0,"CLASSIFICATION_TYPE":"U","NORAD_CAT_ID":42838,"ELEMENT_SET_NO":999,"REV_AT_EPOCH":47319,"BSTAR":0.00079875,"MEAN_MOTION_DOT":0.00023598,"MEAN_MOTION_DDOT":0},{"OBJECT_NAME":"STARLINK-34733","OBJECT_ID":"2025-263C","EPOCH":"2026-03-09T04:07:59.232576","MEAN_MOTION":15.27575434,"ECCENTRICITY":0.0001439,"INCLINATION":43.0038,"RA_OF_ASC_NODE":353.2895,"ARG_OF_PERICENTER":252.0512,"MEAN_ANOMALY":108.0183,"EPHEMERIS_TYPE":0,"CLASSIFICATION_TYPE":"U","NORAD_CAT_ID":66487,"ELEMENT_SET_NO":999,"REV_AT_EPOCH":1882,"BSTAR":0.001405514,"MEAN_MOTION_DOT":0.00038612,"MEAN_MOTION_DDOT":0}]
